KUIPER-00027            
1 63740U 25088S   25215.91668981  .00032150  00000+0  89861-3 0  9991
2 63740  51.8736 349.2057 0001386 157.1947 326.0042 15.36400158 15213
KUIPER-00028            
1 63741U 25088T   25215.36362667  .00017110  00000+0  45222-3 0  9995
2 63741  51.8723 351.7453 0001699  63.3693 296.7468 15.38521996 15548
KUIPER-00029            
1 63742U 25088U   25215.35909737  .00015365  00000+0  42332-3 0  9999
2 63742  51.8706 352.4406 0004810  96.3225 263.8310 15.37316085 15069
KUIPER-00030            
1 63743U 25088V   25215.91668981 -.01785573  00000+0 -12561+0 0  9990
2 63743  51.8881 355.1327 0011616  77.9312  54.8961 15.07993233 15355
KUIPER-00031            
1 63744U 25088W   25215.91668981 -.00722054  00000+0 -22404-1 0  9994
2 63744  51.8717 349.4028 0003051  87.7991 296.3337 15.35385416 15151
KUIPER-00032            
1 63745U 25088X   25215.91668981  .00020402  00000+0  72876-3 0  9991
2 63745  51.8749 349.8978 0004961  63.4699  60.2341 15.28806880 16140
KUIPER-00033            
1 63746U 25088Y   25215.43807404  .00001240  00000+0  18932-3 0  9996
2 63746  51.9029  11.7025 0003279 164.2990 195.8075 14.80495367 15280
KUIPER-00034            
1 63747U 25088Z   25215.76005862  .00013861  00000+0  37369-3 0  9998
2 63747  51.8724 349.9032 0001487  97.4670 262.6486 15.38084684 15297
